[{"OBJECT_NAME":"YAOGAN-43 01H","OBJECT_ID":"2024-148H","EPOCH":"2026-03-10T00:13:57.702432","MEAN_MOTION":15.25826805,"ECCENTRICITY":0.000635,"INCLINATION":34.994,"RA_OF_ASC_NODE":64.6147,"ARG_OF_PERICENTER":359.2394,"MEAN_ANOMALY":0.8311,"EPHEMERIS_TYPE":0,"CLASSIFICATION_TYPE":"U","NORAD_CAT_ID":60465,"ELEMENT_SET_NO":999,"REV_AT_EPOCH":8702,"BSTAR":0.00039232254,"MEAN_MOTION_DOT":0.00010268,"MEAN_MOTION_DDOT":0},{"OBJECT_NAME":"STARLINK-36526","OBJECT_ID":"2026-012R","EPOCH":"2026-03-09T09:44:58.365312","MEAN_MOTION":15.27578132,"ECCENTRICITY":0.00015836,"INCLINATION":43.0032,"RA_OF_ASC_NODE":315.5476,"ARG_OF_PERICENTER":256.5628,"MEAN_ANOMALY":103.5047,"EPHEMERIS_TYPE":0,"CLASSIFICATION_TYPE":"U","NORAD_CAT_ID":67508,"ELEMENT_SET_NO":999,"REV_AT_EPOCH":772,"BSTAR":0.00062731391,"MEAN_MOTION_DOT":0.00017039,"MEAN_MOTION_DDOT":0}]
